{
  "type": "FeatureCollection",
  "features": [
    {
      "type": "Feature",
      "properties": {
        "norad_id": 30683,
        "name": "FENGYUN 1C DEB",
        "group": "fengyun-1c-debris",
        "lat": -30.774043953975777,
        "lon": 9.635072353172243,
        "alt_km": 946.6469452434567,
        "timestamp": "2025-12-18T07:01:54.867836+00:00",
        "meta_object_name": "FENGYUN 1C DEB",
        "meta_object_id": "1999-025AQR",
        "meta_epoch": "2025-12-17T13:07:50.712672",
        "meta_mean_motion": 14.00404084,
        "meta_eccentricity": 0.01382979,
        "meta_inclination": 99.427,
        "meta_ra_of_asc_node": 3.1883,
        "meta_arg_of_pericenter": 211.4622,
        "meta_mean_anomaly": 317.7166,
        "meta_ephemeris_type": 0,
        "meta_classification_type": "U",
        "meta_norad_cat_id": 30683,
        "meta_element_set_no": 999,
        "meta_rev_at_epoch": 95618,
        "meta_bstar": 0.00092029898,
        "meta_mean_motion_dot": 1.434e-05,
        "meta_mean_motion_ddot": 0,
        "tle_line1": "1 30683U 99025AQR 25351.54711473  .00001434  00000+0  92030-3 0  9991",
        "tle_line2": "2 30683  99.4270   3.1883 0138297 211.4622 317.7166 14.00404084956189"
      },
      "geometry": {
        "type": "Point",
        "coordinates": [
          9.635072353172243,
          -30.774043953975777
        ]
      }
    },
    {
      "type": "Feature",
      "properties": {
        "norad_id": 30684,
        "name": "FENGYUN 1C DEB",
        "group": "fengyun-1c-debris",
        "lat": -8.60060195579515,
        "lon": -147.85280241406386,
        "alt_km": 941.8530940990549,
        "timestamp": "2025-12-18T07:01:54.867848+00:00",
        "meta_object_name": "FENGYUN 1C DEB",
        "meta_object_id": "1999-025AQS",
        "meta_epoch": "2025-12-17T01:58:40.709568",
        "meta_mean_motion": 13.66814682,
        "meta_eccentricity": 0.02353573,
        "meta_inclination": 99.5312,
        "meta_ra_of_asc_node": 32.4102,
        "meta_arg_of_pericenter": 258.1193,
        "meta_mean_anomaly": 99.3473,
        "meta_ephemeris_type": 0,
        "meta_classification_type": "U",
        "meta_norad_cat_id": 30684,
        "meta_element_set_no": 999,
        "meta_rev_at_epoch": 93688,
        "meta_bstar": 0.00098271621,
        "meta_mean_motion_dot": 9.45e-06,
        "meta_mean_motion_ddot": 0,
        "tle_line1": "1 30684U 99025AQS 25351.08241562  .00000945  00000+0  98272-3 0  9998",
        "tle_line2": "2 30684  99.5312  32.4102 0235357 258.1193  99.3473 13.66814682936882"
      },
      "geometry": {
        "type": "Point",
        "coordinates": [
          -147.85280241406386,
          -8.60060195579515
        ]
      }
    },
    {
      "type": "Feature",
      "properties": {
        "norad_id": 30686,
        "name": "FENGYUN 1C DEB",
        "group": "fengyun-1c-debris",
        "lat": 67.92414268962993,
        "lon": 29.914687236636055,
        "alt_km": 541.2833391848117,
        "timestamp": "2025-12-18T07:01:54.867858+00:00",
        "meta_object_name": "FENGYUN 1C DEB",
        "meta_object_id": "1999-025AQU",
        "meta_epoch": "2025-12-17T19:12:53.611200",
        "meta_mean_motion": 14.73931035,
        "meta_eccentricity": 0.0144139,
        "meta_inclination": 99.0326,
        "meta_ra_of_asc_node": 186.2734,
        "meta_arg_of_pericenter": 104.9244,
        "meta_mean_anomaly": 273.9794,
        "meta_ephemeris_type": 0,
        "meta_classification_type": "U",
        "meta_norad_cat_id": 30686,
        "meta_element_set_no": 999,
        "meta_rev_at_epoch": 99676,
        "meta_bstar": 0.00050390966,
        "meta_mean_motion_dot": 3.838e-05,
        "meta_mean_motion_ddot": 0,
        "tle_line1": "1 30686U 99025AQU 25351.80062050  .00003838  00000+0  50391-3 0  9997",
        "tle_line2": "2 30686  99.0326 186.2734 0144139 104.9244 273.9794 14.73931035996765"
      },
      "geometry": {
        "type": "Point",
        "coordinates": [
          29.914687236636055,
          67.92414268962993
        ]
      }
    },
    {
      "type": "Feature",
      "properties": {
        "norad_id": 30688,
        "name": "FENGYUN 1C DEB",
        "group": "fengyun-1c-debris",
        "lat": -36.398689065674226,
        "lon": 72.17434757627149,
        "alt_km": 778.842330303497,
        "timestamp": "2025-12-18T07:01:54.867868+00:00",
        "meta_object_name": "FENGYUN 1C DEB",
        "meta_object_id": "1999-025AQW",
        "meta_epoch": "2025-12-17T11:09:52.022016",
        "meta_mean_motion": 14.32737287,
        "meta_eccentricity": 0.0015461,
        "meta_inclination": 98.702,
        "meta_ra_of_asc_node": 64.8602,
        "meta_arg_of_pericenter": 300.4847,
        "meta_mean_anomaly": 75.3475,
        "meta_ephemeris_type": 0,
        "meta_classification_type": "U",
        "meta_norad_cat_id": 30688,
        "meta_element_set_no": 999,
        "meta_rev_at_epoch": 97328,
        "meta_bstar": 0.0012695541,
        "meta_mean_motion_dot": 3.417e-05,
        "meta_mean_motion_ddot": 0,
        "tle_line1": "1 30688U 99025AQW 25351.46518544  .00003417  00000+0  12696-2 0  9993",
        "tle_line2": "2 30688  98.7020  64.8602 0015461 300.4847  75.3475 14.32737287973286"
      },
      "geometry": {
        "type": "Point",
        "coordinates": [
          72.17434757627149,
          -36.398689065674226
        ]
      }
    },
    {
      "type": "Feature",
      "properties": {
        "norad_id": 30689,
        "name": "FENGYUN 1C DEB",
        "group": "fengyun-1c-debris",
        "lat": -76.88309624763497,
        "lon": 117.23839733230538,
        "alt_km": 940.7739829061838,
        "timestamp": "2025-12-18T07:01:54.867878+00:00",
        "meta_object_name": "FENGYUN 1C DEB",
        "meta_object_id": "1999-025AQX",
        "meta_epoch": "2025-12-17T11:40:40.390176",
        "meta_mean_motion": 14.11774167,
        "meta_eccentricity": 0.01118115,
        "meta_inclination": 98.7082,
        "meta_ra_of_asc_node": 337.583,
        "meta_arg_of_pericenter": 89.939,
        "meta_mean_anomaly": 33.7921,
        "meta_ephemeris_type": 0,
        "meta_classification_type": "U",
        "meta_norad_cat_id": 30689,
        "meta_element_set_no": 999,
        "meta_rev_at_epoch": 96957,
        "meta_bstar": 0.00035622109,
        "meta_mean_motion_dot": 6.47e-06,
        "meta_mean_motion_ddot": 0,
        "tle_line1": "1 30689U 99025AQX 25351.48657859  .00000647  00000+0  35622-3 0  9996",
        "tle_line2": "2 30689  98.7082 337.5830 0111811  89.9390  33.7921 14.11774167969572"
      },
      "geometry": {
        "type": "Point",
        "coordinates": [
          117.23839733230538,
          -76.88309624763497
        ]
      }
    },
    {
      "type": "Feature",
      "properties": {
        "norad_id": 30690,
        "name": "FENGYUN 1C DEB",
        "group": "fengyun-1c-debris",
        "lat": 58.84534485902752,
        "lon": 118.19498587700194,
        "alt_km": 840.0213228561088,
        "timestamp": "2025-12-18T07:01:54.867888+00:00",
        "meta_object_name": "FENGYUN 1C DEB",
        "meta_object_id": "1999-025AQY",
        "meta_epoch": "2025-12-17T18:44:35.242080",
        "meta_mean_motion": 14.02346028,
        "meta_eccentricity": 0.01050814,
        "meta_inclination": 99.1591,
        "meta_ra_of_asc_node": 282.2024,
        "meta_arg_of_pericenter": 62.2716,
        "meta_mean_anomaly": 352.9963,
        "meta_ephemeris_type": 0,
        "meta_classification_type": "U",
        "meta_norad_cat_id": 30690,
        "meta_element_set_no": 999,
        "meta_rev_at_epoch": 95778,
        "meta_bstar": 0.001107304,
        "meta_mean_motion_dot": 1.739e-05,
        "meta_mean_motion_ddot": 0,
        "tle_line1": "1 30690U 99025AQY 25351.78096345  .00001739  00000+0  11073-2 0  9994",
        "tle_line2": "2 30690  99.1591 282.2024 0105081  62.2716 352.9963 14.02346028957786"
      },
      "geometry": {
        "type": "Point",
        "coordinates": [
          118.19498587700194,
          58.84534485902752
        ]
      }
    },
    {
      "type": "Feature",
      "properties": {
        "norad_id": 30691,
        "name": "FENGYUN 1C DEB",
        "group": "fengyun-1c-debris",
        "lat": -37.20426898725411,
        "lon": 176.65663359944,
        "alt_km": 834.9567571170601,
        "timestamp": "2025-12-18T07:01:54.867898+00:00",
        "meta_object_name": "FENGYUN 1C DEB",
        "meta_object_id": "1999-025AQZ",
        "meta_epoch": "2025-12-17T13:19:55.191360",
        "meta_mean_motion": 13.89447943,
        "meta_eccentricity": 0.01394004,
        "meta_inclination": 98.7423,
        "meta_ra_of_asc_node": 2.6722,
        "meta_arg_of_pericenter": 219.93,
        "meta_mean_anomaly": 270.7476,
        "meta_ephemeris_type": 0,
        "meta_classification_type": "U",
        "meta_norad_cat_id": 30691,
        "meta_element_set_no": 999,
        "meta_rev_at_epoch": 95183,
        "meta_bstar": 0.0010827684,
        "meta_mean_motion_dot": 1.388e-05,
        "meta_mean_motion_ddot": 0,
        "tle_line1": "1 30691U 99025AQZ 25351.55549990  .00001388  00000+0  10828-2 0  9996",
        "tle_line2": "2 30691  98.7423   2.6722 0139400 219.9300 270.7476 13.89447943951835"
      },
      "geometry": {
        "type": "Point",
        "coordinates": [
          176.65663359944,
          -37.20426898725411
        ]
      }
    }
  ]
}